#cP2023  5 25  0  0  0.00000000      96 ORBIT IGS20 HLM  IGS
## 2263 345600.00000000   900.00000000 60089 0.0000000000000
+   32   G01G02G03G04G05G06G07G08G09G10G11G12G13G14G15G16G17
+        G18G19G20G21G22G23G24G25G26G27G28G29G30G31G32  0  0
+          0  0  0  0  0  0  0  0  0  0  0  0  0  0  0  0  0
+          0  0  0  0  0  0  0  0  0  0  0  0  0  0  0  0  0
+          0  0  0  0  0  0  0  0  0  0  0  0  0  0  0  0  0
++         2  2  2  2  2  2  2  2  2  2  2  3  2  3  2  2  2
++         2  2  2  2  2  2  2  2  2  2  2  2  2  2  2  0  0
++         0  0  0  0  0  0  0  0  0  0  0  0  0  0  0  0  0
++         0  0  0  0  0  0  0  0  0  0  0  0  0  0  0  0  0
++         0  0  0  0  0  0  0  0  0  0  0  0  0  0  0  0  0
%c G  cc GPS ccc cccc cccc cccc cccc ccccc ccccc ccccc ccccc
%c cc cc ccc ccc cccc cccc cccc cccc ccccc ccccc ccccc ccccc
%f  1.2500000  1.025000000  0.00000000000  0.000000000000000
%f  0.0000000  0.000000000  0.00000000000  0.000000000000000
%i    0    0    0    0      0      0      0      0         0
%i    0    0    0    0      0      0      0      0         0
/* RAPID ORBIT COMBINATION FROM WEIGHTED AVERAGE OF:        
/* cod emr esa gfz grg jpl ngs sio usn whu                  
/* REFERENCED TO IGS TIME (IGST) AND TO WEIGHTED MEAN POLE: 
/* PCV:IGS20_2233 OL/AL:FES2014b NONE     Y  ORB:CMB CLK:CMB
*  2023  5 25  1 30  0.00000000
PG01 -13994.331801  20299.966005   9053.676030    182.908794  5  4  4  99       
PG02 -15860.036208    975.938596  21864.855900   -592.757919  7  7  5  96       
PG03 -18874.447208  12775.713536 -13666.676038   -293.062160  6  3  5  96       
PG04  -8265.090902  13471.395093 -21317.377489     50.173124  5  5  6 118       
PG05  26159.418811  -4595.949417  -2038.371427   -128.488298  8  6  6  95       
PG06   7922.915907  15905.050061 -19647.463230    587.526970  5  5  5 106       
PG07  -5099.615890  25345.025137   5275.447079    169.888037  6  3  6  90       
PG08 -17116.595899   2196.368638  20220.324456   -124.061773  4  6  4 108       
PG09   1858.082059  20270.253288 -17110.166736   -151.374238  6  3  6 123       
PG10 -11582.311835 -12113.728086  20857.321828    -38.329649  4  3  6  85       
PG11  15675.041136    887.581575 -21411.208298   -209.305901  8  3  7  81       
PG12  21599.826305 -10463.113730 -11561.661208   -380.166485  9  9  6 106       
PG13  18631.257787   6784.326049  17595.192422    524.648302  5  3  5 104       
PG14   8048.751706  14058.083549  21083.490905     68.142340  6  6  8 104       
PG15  16633.210155  -4840.518816  19740.802822     42.599355  5  5  4  87       
PG16 -26353.501842  -1061.988024  -5074.762714   -498.025896  9  6  5  52       
PG17  12782.460344  22756.223353   5030.631661    716.029910  5  5  6 109       
PG18   3640.899319 -24986.081592   7978.975395   -280.148810  5  2  5 110       
PG19  17218.142768  20023.072042  -4324.543305    321.408626  5  5  6 102       
PG20  24050.168594   -353.892064 -11016.215612    431.738005  8  7  7  87       
PG21 -15797.538627  12587.655677  17326.050466    153.609623  7  5  5  77       
PG22 -18368.532262 -18073.368301  -6313.010970    486.899558  7  8  7 124       
PG23   2200.587137 -15406.872927  21505.921120     27.017473  6  5  1  85       
PG24  14491.820341 -17540.971469  12991.717155   -200.861863  3  3  3  92       
PG25  10645.194718 -15691.529521 -18805.295477    445.168814  8  7  7 108       
PG26 -20667.785016  -6661.288884 -15634.334595    240.318807  7  7  3  81       
PG27 -20649.446307  -9341.442910  13926.078833     30.445824  4  4  2  80       
PG28  -7832.983709 -17587.418670 -18321.287366     80.169184  8  6  4  82       
PG29   2111.292255 -18679.729854 -18783.484491   -600.611026  6  3  3 112       
PG30   3041.310388  22171.222895  14211.904999   -515.247323  5  1  5  93       
PG31 -14142.126480  -6216.744751 -21775.299151   -216.786371  7  5  3  91       
PG32 -15991.545619 -21208.043067   2572.793272   -484.555734  4  7  6 114       
*  2023  5 25  1 45  0.00000000
PG01 -13770.033412  19070.051573  11642.227568    182.906423  5  4  4  99       
PG02 -15350.610954  -1366.606990  22234.155324   -592.754220  7  8  5  85       
PG03 -20288.249672  12906.383337 -11276.586091   -293.051659  6  3  5  90       
PG04  -9890.329476  11616.378349 -21722.821418     50.182091  5  5  6 113       
PG05  25856.233095  -4280.977806  -4862.274281   -128.489519  8  6  6  94       
PG06   7150.892657  17935.282936 -18133.349496    587.526172  5  4  5 107       
PG07  -5521.760782  25628.040282   2458.486076    169.879527  6  3  6  61       
PG08 -18605.770595    507.900770  19020.415466   -124.063435  4  6  4 104       
PG09    342.288303  18896.760374 -18714.930694   -151.366562  6  3  6 120       
PG10  -9262.137028 -12664.854296  21653.494471    -38.330527  4  4  5  98       
PG11  14834.466428   3212.671891 -21787.423891   -209.318676  7  3  7  81       
PG12  22761.895767 -10417.216218  -9028.752832   -380.170468  9  8  5 102       
PG13  19602.916386   8457.290097  15754.533544    524.653303  5  4  4 108       
PG14   5659.406922  14539.129806  21516.136184     68.153729  6  6  8 105       
PG15  18305.496111  -3277.415410  18598.946905     42.602684  5  4  4  85       
PG16 -25692.461709  -1341.122208  -7788.815949   -498.022550  8  6  5  64       
PG17  12190.610750  22353.271153   7793.745741    716.030995  5  5  6 110       
PG18   4092.981271 -25632.529157   5222.758151   -280.162840  5  3  5 110       
PG19  17241.435022  20383.114693  -1487.291577    321.412934  5  5  6  90       
PG20  22837.309344    405.070032 -13357.847607    431.736242  8  7  6  83       
PG21 -15520.912331  10591.675471  18964.028355    153.609272  7  6  5  73       
PG22 -18552.178984 -18704.561627  -3537.663128    486.904925  6  7  7 113       
PG23   4559.904157 -15925.636193  20729.994955     27.020405  5  4  2  90       
PG24  14397.972093 -15836.220845  15099.197241   -200.874168  3  3  3  90       
PG25  12644.598840 -15987.233827 -17200.535759    445.171258  7  8  7  98       
PG26 -18927.979873  -7361.893421 -17404.078045    240.318151  6  7  2  93       
PG27 -21524.639292 -10551.402406  11621.506713     30.438704  4  4  1  94       
PG28  -7147.020481 -19466.851299 -16620.640739     80.171518  8  6  4  91       
PG29   3551.796835 -16994.999946 -20129.973020   -600.612137  6  4  3 113       
PG30   2313.624947  23508.265099  11986.401797   -515.245321  5  2  5  88       
PG31 -13304.982232  -8511.650666 -21483.944695   -216.787010  7  5  2  84       
PG32 -15523.180808 -21053.267204   5366.582397   -484.563828  3  7  6 122       
*  2023  5 25  2  0  0.00000000
PG01 -13539.693290  17551.769084  14023.123404    182.904072  5  4  4 100       
PG02 -14967.634621  -3751.423366  22241.363059   -592.750656  7  8  4  88       
PG03 -21422.441802  13037.605668  -8692.394064   -293.041160  6  2  5  83       
PG04 -11626.651727   9831.799600 -21753.852785     50.191082  5  5  6 112       
PG05  25272.283373  -3853.119741  -7603.397785   -128.491630  8  7  6  90       
PG06   6542.855115  19821.847592 -16304.655454    587.525373  6  4  4 100       
PG07  -5852.060446  25617.520810   -401.850361    169.871010  7  4  6  62       
PG08 -20065.955228   -993.266553  17495.105674   -124.063820  4  5  5  94       
PG09  -1360.511914  17491.909154 -19999.020311   -151.358865  5  4  6 111       
PG10  -6907.629655 -13363.886764  22084.549404    -38.331974  4  4  5  75       
PG11  14111.598890   5598.952194 -21788.461992   -209.331498  7  4  7  75       
PG12  23637.889395 -10371.609126  -6341.362385   -380.174979  9  8  5  84       
PG13  20524.631284   9896.055428  13641.907422    524.658087  5  4  4 102       
PG14   3268.671771  15146.894981  21579.278068     68.165254  5  6  8  97       
PG15  19925.925739  -1886.637232  17127.502310     42.605802  5  4  4  85       
PG16 -24757.324030  -1708.649741 -10373.552620   -498.019488  7  5  5  59       
PG17  11376.988679  21756.570556  10423.770526    716.032498  5  5  6 115       
PG18   4425.168031 -25994.935231   2375.808679   -280.176869  4  4  5 112       
PG19  17078.752790  20495.707797   1375.029337    321.417580  5  5  6 104       
PG20  21435.428129   1330.570791 -15466.988399    431.733967  7  8  6  89       
PG21 -15320.980180   8430.151907  20280.680862    153.609140  7  6  4  68       
PG22 -18562.954327 -19081.902192   -701.522220    486.911015  6  6  8 109       
PG23   6785.634196 -16539.135806  19596.390782     27.023346  4  4  4  88       
PG24  14346.358375 -13905.569734  16935.778517   -200.886461  2  3  3  97       
PG25  14441.295742 -16329.168221 -15303.460613    445.173636  7  8  7  98       
PG26 -17051.870934  -8207.594977 -18880.509575    240.317568  5  7     85       
PG27 -22268.060747 -11520.220821   9118.688747     30.431528  5  4  1  71       
PG28  -6604.732330 -21175.943061 -14634.482802     80.173878  8  6  4  96       
PG29   5169.188860 -15292.312832 -21130.975460   -600.613306  6  4  3 111       
PG30   1716.997799  24625.123745   9552.961591   -515.243336  4  2  5  93       
PG31 -12599.767276 -10799.593355 -20827.262737   -216.787743  6  4  3  86       
PG32 -14825.501629 -20708.650355   8069.481771   -484.571968  2  6  6 116       
EOF
